NORAD_CAT_ID,OBJECT_NAME,OBJECT_TYPE,EPOCH,MEAN_MOTION,ECCENTRICITY,INCLINATION,RA_OF_ASC_NODE,ARG_OF_PERICENTER,MEAN_ANOMALY,BSTAR,MEAN_MOTION_DOT,MEAN_MOTION_DDOT,TLE_LINE0,TLE_LINE1,TLE_LINE2,SEMIMAJOR_AXIS,PERIOD,APOGEE,PERIGEE,DECAYED
53843.0,STARLINK-4769,PAYLOAD,2023-02-28 10:18:40,15.08827001,0.0001374,53.2162,215.9105,78.0654,282.0492,-0.00010215,-1.913e-05,0.0,0 STARLINK-4769,1 53843U 22114AB  23059.42964067 -.00001913  00000-0 -10215-3 0  9998,2 53843  53.2162 215.9105 0001374  78.0654 282.0492 15.08827001 26111,6917.92,95.438,540.736,538.835,0.0
53843.0,STARLINK-4769,PAYLOAD,2023-02-28 16:40:13,15.08827827,0.0001193,53.2162,214.7203,86.0681,274.0447,-7.4468e-05,-1.472e-05,0.0,0 STARLINK-4769,1 53843U 22114AB  23059.69460313 -.00001472  00000-0 -74468-4 0  9993,2 53843  53.2162 214.7203 0001193  86.0681 274.0447 15.08827827 26156,6917.918,95.438,540.608,538.957,0.0
53843.0,STARLINK-4769,PAYLOAD,2023-03-01 03:47:56,15.08825973,0.0001326,53.2168,212.6376,86.4775,273.6369,0.00010438,1.373e-05,0.0,0 STARLINK-4769,1 53843U 22114AB  23060.15828899  .00001373  00000-0  10438-3 0  9997,2 53843  53.2168 212.6376 0001326  86.4775 273.6369 15.08825973 25681,6917.923,95.438,540.706,538.871,0.0
53843.0,STARLINK-4769,PAYLOAD,2023-03-01 13:20:15,15.08831498,0.0001252,53.216,210.8547,81.0074,279.1059,0.00025675,3.8e-05,0.0,0 STARLINK-4769,1 53843U 22114AB  23060.55573100  .00003800  00000-0  25675-3 0  9999,2 53843  53.2160 210.8547 0001252  81.0074 279.1059 15.08831498 26287,6917.906,95.438,540.637,538.905,0.0
53843.0,STARLINK-4769,PAYLOAD,2023-03-01 21:17:10,15.08845035,0.000137,53.216,209.3665,87.9736,272.1413,0.00034334,5.181e-05,0.0,0 STARLINK-4769,1 53843U 22114AB  23060.88692671  .00005181  00000-0  34334-3 0  9996,2 53843  53.2160 209.3665 0001370  87.9736 272.1413 15.08845035 25796,6917.865,95.437,540.678,538.782,0.0
53843.0,STARLINK-4769,PAYLOAD,2023-03-02 17:57:11,15.08857196,0.0001376,53.2169,205.5023,96.4505,263.6643,0.00055477,8.556e-05,0.0,0 STARLINK-4769,1 53843U 22114AB  23061.74804469  .00008556  00000-0  55477-3 0  9992,2 53843  53.2169 205.5023 0001376  96.4505 263.6643 15.08857196 26462,6917.828,95.436,540.645,538.741,0.0
53843.0,STARLINK-4769,PAYLOAD,2023-03-03 09:51:02,15.08851133,8.65e-05,53.2164,202.528,118.4818,241.6261,0.00028285,4.218e-05,0.0,0 STARLINK-4769,1 53843U 22114AB  23062.41044245  .00004218  00000-0  28285-3 0  9993,2 53843  53.2164 202.5280 0000865 118.4818 241.6261 15.08851133 26022,6917.846,95.437,540.31,539.113,0.0
53843.0,STARLINK-4769,PAYLOAD,2023-03-03 11:26:25,15.08856359,0.0001002,53.2165,202.2296,121.6454,238.4636,0.00068091,0.0001057,0.0,0 STARLINK-4769,1 53843U 22114AB  23062.47668120  .00010570  00000-0  68091-3 0  9990,2 53843  53.2165 202.2296 0001002 121.6454 238.4636 15.08856359 26578,6917.83,95.437,540.389,539.002,0.0
53843.0,STARLINK-4769,PAYLOAD,2023-03-03 13:01:48,15.08873568,0.0001165,53.2163,201.9331,106.7942,253.3178,0.0014581,0.00023015,0.0,0 STARLINK-4769,1 53843U 22114AB  23062.54291907  .00023015  00000-0  14581-2 0  9995,2 53843  53.2163 201.9331 0001165 106.7942 253.3178 15.08873568 26048,6917.778,95.435,540.449,538.837,0.0
53843.0,STARLINK-4769,PAYLOAD,2023-03-03 20:58:43,15.08899524,0.0001112,53.2168,200.4472,104.7215,255.39,0.0028385,0.00045251,0.0,0 STARLINK-4769,1 53843U 22114AB  23062.87411067  .00045251  00000-0  28385-2 0  9995,2 53843  53.2168 200.4472 0001112 104.7215 255.3900 15.08899524 26636,6917.698,95.434,540.333,538.794,0.0
53843.0,STARLINK-4769,PAYLOAD,2023-03-04 01:44:52,15.08853383,0.0001468,53.217,199.5552,98.5024,261.6135,-0.00013201,-2.389e-05,0.0,0 STARLINK-4769,1 53843U 22114AB  23063.07283412 -.00002389  00000-0 -13201-3 0  9998,2 53843  53.2170 199.5552 0001468  98.5024 261.6135 15.08853383 26125,6917.839,95.437,540.72,538.689,0.0
53843.0,STARLINK-4769,PAYLOAD,2023-03-04 11:17:11,15.08850286,0.000198,53.2169,197.772,83.8991,276.2226,0.00071327,0.00011085,0.0,0 STARLINK-4769,1 53843U 22114AB  23063.47027718  .00011085  00000-0  71327-3 0  9991,2 53843  53.2169 197.7720 0001980  83.8991 276.2226 15.08850286 26727,6917.849,95.437,541.084,538.344,0.0
53843.0,STARLINK-4769,PAYLOAD,2023-03-04 12:52:35,15.0884751,0.0001246,53.217,197.4743,82.1612,277.9521,0.0014567,0.00022976,0.0,0 STARLINK-4769,1 53843U 22114AB  23063.53651831  .00022976  00000-0  14567-2 0  9990,2 53843  53.2170 197.4743 0001246  82.1612 277.9521 15.08847510 26191,6917.857,95.437,540.584,538.86,0.0
53843.0,STARLINK-4769,PAYLOAD,2023-03-04 19:14:07,15.08862194,0.0001281,53.2168,196.2843,75.8101,284.3033,0.0024795,0.00039418,0.0,0 STARLINK-4769,1 53843U 22114AB  23063.80147609  .00039418  00000-0  24795-2 0  9996,2 53843  53.2168 196.2843 0001281  75.8101 284.3033 15.08862194 26776,6917.813,95.436,540.564,538.791,0.0
53843.0,STARLINK-4769,PAYLOAD,2023-03-05 01:35:40,15.08835899,0.0001267,53.2167,195.0948,92.8735,267.2403,0.00063881,9.892e-05,0.0,0 STARLINK-4769,1 53843U 22114AB  23064.06644136  .00009892  00000-0  63881-3 0  9995,2 53843  53.2167 195.0948 0001267  92.8735 267.2403 15.08835899 26272,6917.893,95.438,540.634,538.881,0.0
53843.0,STARLINK-4769,PAYLOAD,2023-03-06 10:58:46,15.08858364,0.0001199,53.217,188.8515,110.8536,249.2585,0.003009,0.0004795,0.0,0 STARLINK-4769,1 53843U 22114AB  23065.45748613  .00047950  00000-0  30090-2 0  9996,2 53843  53.2170 188.8515 0001199 110.8536 249.2585 15.08858364 26486,6917.824,95.436,540.519,538.86,0.0
53843.0,STARLINK-4769,PAYLOAD,2023-03-06 17:20:18,15.08883106,0.0001399,53.2169,187.6625,102.7166,257.3982,0.0026835,0.0004273,0.0,0 STARLINK-4769,1 53843U 22114AB  23065.72244030  .00042730  00000-0  26835-2 0  9993,2 53843  53.2169 187.6625 0001399 102.7166 257.3982 15.08883106 27062,6917.749,95.435,540.581,538.646,0.0
53843.0,STARLINK-4769,PAYLOAD,2023-03-07 01:17:14,15.08855921,0.0001732,53.2174,186.174,88.5722,271.5469,0.00097469,0.00015265,0.0,0 STARLINK-4769,1 53843U 22114AB  23066.05364349  .00015265  00000-0  97469-3 0  9991,2 53843  53.2174 186.1740 0001732  88.5722 271.5469 15.08855921 26577,6917.832,95.437,540.895,538.499,0.0
53843.0,STARLINK-4769,PAYLOAD,2023-03-07 07:38:47,15.0882791,0.0001243,53.218,184.9868,81.121,278.9923,-0.00034764,-5.814e-05,0.0,0 STARLINK-4769,1 53843U 22114AB  23066.31860654 -.00005814  00000-0 -34764-3 0  9990,2 53843  53.2180 184.9868 0001243  81.1210 278.9923 15.08827910 26617,6917.917,95.438,540.642,538.922,0.0
53843.0,STARLINK-4769,PAYLOAD,2023-03-08 01:08:02,15.08855066,0.000164,53.2174,181.7168,72.6273,287.4898,0.00173,0.00027364,0.0,0 STARLINK-4769,1 53843U 22114AB  23067.04725010  .00027364  00000-0  17300-2 0  9995,2 53843  53.2174 181.7168 0001640  72.6273 287.4898 15.08855066 26724,6917.834,95.437,540.834,538.565,0.0
53843.0,STARLINK-4769,PAYLOAD,2023-03-08 10:40:21,15.08832584,0.0001467,53.2176,179.932,92.1478,267.9682,0.0031567,0.00050299,0.0,0 STARLINK-4769,1 53843U 22114AB  23067.44469575  .00050299  00000-0  31567-2 0  9994,2 53843  53.2176 179.9320 0001467  92.1478 267.9682 15.08832584 26786,6917.903,95.438,540.783,538.753,0.0
53843.0,STARLINK-4769,PAYLOAD,2023-03-08 17:01:54,15.08866816,0.0001854,53.217,178.7399,100.6938,259.4263,0.0033968,0.00054229,0.0,0 STARLINK-4769,1 53843U 22114AB  23067.70965285  .00054229  00000-0  33968-2 0  9996,2 53843  53.2170 178.7399 0001854 100.6938 259.4263 15.08866816 27360,6917.798,95.436,540.946,538.381,0.0
53843.0,STARLINK-4769,PAYLOAD,2023-03-09 00:58:49,15.08865366,0.000169,53.2183,177.2543,106.1686,253.9492,0.0024605,0.00039116,0.0,0 STARLINK-4769,1 53843U 22114AB  23068.04085305  .00039116  00000-0  24605-2 0  9996,2 53843  53.2183 177.2543 0001690 106.1686 253.9492 15.08865366 26875,6917.803,95.436,540.837,538.499,0.0
53843.0,STARLINK-4769,PAYLOAD,2023-03-09 16:52:40,15.08889217,0.0002239,53.218,174.278,121.328,238.7931,0.0025216,0.00040127,0.0,0 STARLINK-4769,1 53843U 22114AB  23068.70324375  .00040127  00000-0  25216-2 0  9995,2 53843  53.2180 174.2780 0002239 121.3280 238.7931 15.08889217 26972,6917.73,95.434,541.144,538.046,0.0
53843.0,STARLINK-4769,PAYLOAD,2023-03-10 10:21:54,15.08868192,0.0002059,53.2176,171.0075,142.5947,217.5189,0.0019929,0.00031596,0.0,0 STARLINK-4769,1 53843U 22114AB  23069.43187984  .00031596  00000-0  19929-2 0  9993,2 53843  53.2176 171.0075 0002059 142.5947 217.5189 15.08868192 27086,6917.794,95.436,541.084,538.235,0.0
53843.0,STARLINK-4769,PAYLOAD,2023-03-10 16:43:26,15.08883938,8.81e-05,53.2181,169.8199,88.3264,271.783,0.0023823,0.00037876,0.0,0 STARLINK-4769,1 53843U 22114AB  23069.69683716  .00037876  00000-0  23823-2 0  9990,2 53843  53.2181 169.8199 0000881  88.3264 271.7830 15.08883938 27668,6917.746,95.435,540.221,539.002,0.0
53843.0,STARLINK-4769,PAYLOAD,2023-03-11 05:26:33,15.08828754,0.0002983,53.2177,167.4385,97.5345,262.5987,0.001171,0.00018392,0.0,0 STARLINK-4769,1 53843U 22114AB  23070.22677459  .00018392  00000-0  11710-2 0  9992,2 53843  53.2177 167.4385 0002983  97.5345 262.5987 15.08828754 27207,6917.915,95.438,541.843,537.716,0.0
53843.0,STARLINK-4769,PAYLOAD,2023-03-11 10:12:42,15.08810974,0.0002002,53.2183,166.5501,127.9707,232.1466,0.00070146,0.00010885,0.0,0 STARLINK-4769,1 53843U 22114AB  23070.42549563  .00010885  00000-0  70146-3 0  9996,2 53843  53.2183 166.5501 0002002 127.9707 232.1466 15.08810974 27778,6917.969,95.439,541.219,538.449,0.0
53843.0,STARLINK-4769,PAYLOAD,2023-03-11 18:09:38,15.08840481,0.0001299,53.217,165.0636,123.1093,237.0024,0.0023068,0.00036616,0.0,0 STARLINK-4769,1 53843U 22114AB  23070.75669758  .00036616  00000-0  23068-2 0  9991,2 53843  53.2170 165.0636 0001299 123.1093 237.0024 15.08840481 27286,6917.879,95.438,540.643,538.845,0.0
53843.0,STARLINK-4769,PAYLOAD,2023-03-12 11:38:53,15.08849636,0.0001089,53.2168,161.7924,118.7428,241.3674,0.0019108,0.00030261,0.0,0 STARLINK-4769,1 53843U 22114AB  23071.48534329  .00030261  00000-0  19108-2 0  9997,2 53843  53.2168 161.7924 0001089 118.7428 241.3674 15.08849636 27397,6917.851,95.437,540.469,538.963,0.0
